{
  "type": "FeatureCollection",
  "features": [
    {
      "type": "Feature",
      "properties": {
        "norad_id": 66661,
        "name": "SNUGLITE-III",
        "group": "last-30-days",
        "lat": 54.76781106872519,
        "lon": 110.88781339907663,
        "alt_km": 589.5849838256736,
        "timestamp": "2025-12-18T15:47:09.959947+00:00",
        "meta_object_name": "SNUGLITE-III",
        "meta_object_id": "2025-274M",
        "meta_epoch": "2025-12-18T05:34:46.265088",
        "meta_mean_motion": 14.93127861,
        "meta_eccentricity": 0.00131314,
        "meta_inclination": 97.7402,
        "meta_ra_of_asc_node": 279.366,
        "meta_arg_of_pericenter": 261.8079,
        "meta_mean_anomaly": 98.1651,
        "meta_ephemeris_type": 0,
        "meta_classification_type": "U",
        "meta_norad_cat_id": 66661,
        "meta_element_set_no": 999,
        "meta_rev_at_epoch": 322,
        "meta_bstar": 0.00021362331,
        "meta_mean_motion_dot": 2.174e-05,
        "meta_mean_motion_ddot": 0,
        "tle_line1": "1 66661U 25274M   25352.23247992  .00002174  00000+0  21362-3 0  9990",
        "tle_line2": "2 66661  97.7402 279.3660 0013131 261.8079  98.1651 14.93127861  3220"
      },
      "geometry": {
        "type": "Point",
        "coordinates": [
          110.88781339907663,
          54.76781106872519
        ]
      }
    },
    {
      "type": "Feature",
      "properties": {
        "norad_id": 66662,
        "name": "2025-274N",
        "group": "last-30-days",
        "lat": 50.37638138530798,
        "lon": 109.24169151839854,
        "alt_km": 589.6259614546689,
        "timestamp": "2025-12-18T15:47:09.959957+00:00",
        "meta_object_name": "2025-274N",
        "meta_object_id": "2025-274N",
        "meta_epoch": "2025-12-18T05:33:35.016192",
        "meta_mean_motion": 14.9318239,
        "meta_eccentricity": 0.00135539,
        "meta_inclination": 97.7403,
        "meta_ra_of_asc_node": 279.3673,
        "meta_arg_of_pericenter": 261.4456,
        "meta_mean_anomaly": 98.5228,
        "meta_ephemeris_type": 0,
        "meta_classification_type": "U",
        "meta_norad_cat_id": 66662,
        "meta_element_set_no": 999,
        "meta_rev_at_epoch": 322,
        "meta_bstar": 0.00022839863,
        "meta_mean_motion_dot": 2.332e-05,
        "meta_mean_motion_ddot": 0,
        "tle_line1": "1 66662U 25274N   25352.23165528  .00002332  00000+0  22840-3 0  9993",
        "tle_line2": "2 66662  97.7403 279.3673 0013553 261.4456  98.5228 14.93182390  3221"
      },
      "geometry": {
        "type": "Point",
        "coordinates": [
          109.24169151839854,
          50.37638138530798
        ]
      }
    },
    {
      "type": "Feature",
      "properties": {
        "norad_id": 66663,
        "name": "KSLV-II R/B",
        "group": "last-30-days",
        "lat": 76.74020067984166,
        "lon": 135.21232249775173,
        "alt_km": 604.8092622527975,
        "timestamp": "2025-12-18T15:47:09.959969+00:00",
        "meta_object_name": "KSLV-II R/B",
        "meta_object_id": "2025-274P",
        "meta_epoch": "2025-12-18T05:42:48.617280",
        "meta_mean_motion": 14.97400817,
        "meta_eccentricity": 0.00561856,
        "meta_inclination": 97.7432,
        "meta_ra_of_asc_node": 279.5279,
        "meta_arg_of_pericenter": 300.251,
        "meta_mean_anomaly": 59.3157,
        "meta_ephemeris_type": 0,
        "meta_classification_type": "U",
        "meta_norad_cat_id": 66663,
        "meta_element_set_no": 999,
        "meta_rev_at_epoch": 323,
        "meta_bstar": 0.00052803201,
        "meta_mean_motion_dot": 6.279e-05,
        "meta_mean_motion_ddot": 0,
        "tle_line1": "1 66663U 25274P   25352.23806270  .00006279  00000+0  52803-3 0  9996",
        "tle_line2": "2 66663  97.7432 279.5279 0056185 300.2510  59.3157 14.97400817  3237"
      },
      "geometry": {
        "type": "Point",
        "coordinates": [
          135.21232249775173,
          76.74020067984166
        ]
      }
    },
    {
      "type": "Feature",
      "properties": {
        "norad_id": 66664,
        "name": "SOYUZ-MS 28",
        "group": "last-30-days",
        "lat": -40.024985515439944,
        "lon": 71.4601403172172,
        "alt_km": 420.2405514329075,
        "timestamp": "2025-12-18T15:47:09.959982+00:00",
        "meta_object_name": "SOYUZ-MS 28",
        "meta_object_id": "2025-275A",
        "meta_epoch": "2025-12-18T05:11:21.338880",
        "meta_mean_motion": 15.49648163,
        "meta_eccentricity": 0.00031704,
        "meta_inclination": 51.6313,
        "meta_ra_of_asc_node": 115.3593,
        "meta_arg_of_pericenter": 265.6107,
        "meta_mean_anomaly": 94.4519,
        "meta_ephemeris_type": 0,
        "meta_classification_type": "U",
        "meta_norad_cat_id": 66664,
        "meta_element_set_no": 999,
        "meta_rev_at_epoch": 128,
        "meta_bstar": 0.00015154287,
        "meta_mean_motion_dot": 8.098e-05,
        "meta_mean_motion_ddot": 0,
        "tle_line1": "1 66664U 25275A   25352.21621920  .00008098  00000+0  15154-3 0  9992",
        "tle_line2": "2 66664  51.6313 115.3593 0003170 265.6107  94.4519 15.49648163  1284"
      },
      "geometry": {
        "type": "Point",
        "coordinates": [
          71.4601403172172,
          -40.024985515439944
        ]
      }
    },
    {
      "type": "Feature",
      "properties": {
        "norad_id": 66791,
        "name": "STARLINK-35867",
        "group": "last-30-days",
        "lat": -31.336938343691706,
        "lon": 76.82114089705917,
        "alt_km": 359.97484598273513,
        "timestamp": "2025-12-18T15:47:09.959992+00:00",
        "meta_object_name": "STARLINK-35867",
        "meta_object_id": "2025-278A",
        "meta_epoch": "2025-12-18T06:00:02.999808",
        "meta_mean_motion": 15.72018213,
        "meta_eccentricity": 0.00014648,
        "meta_inclination": 42.9992,
        "meta_ra_of_asc_node": 218.4787,
        "meta_arg_of_pericenter": 274.4871,
        "meta_mean_anomaly": 166.2647,
        "meta_ephemeris_type": 0,
        "meta_classification_type": "U",
        "meta_norad_cat_id": 66791,
        "meta_element_set_no": 999,
        "meta_rev_at_epoch": 384,
        "meta_bstar": -0.016346444,
        "meta_mean_motion_dot": -0.01951744,
        "meta_mean_motion_ddot": 0,
        "tle_line1": "1 66791U 25278A   25352.25003472 -.01951744  00000+0 -16346-1 0  9996",
        "tle_line2": "2 66791  42.9992 218.4787 0001464 274.4871 166.2647 15.72018213  3848"
      },
      "geometry": {
        "type": "Point",
        "coordinates": [
          76.82114089705917,
          -31.336938343691706
        ]
      }
    },
    {
      "type": "Feature",
      "properties": {
        "norad_id": 66792,
        "name": "STARLINK-35990",
        "group": "last-30-days",
        "lat": -32.30908200033367,
        "lon": 78.75424768870059,
        "alt_km": 359.9883130275639,
        "timestamp": "2025-12-18T15:47:09.960002+00:00",
        "meta_object_name": "STARLINK-35990",
        "meta_object_id": "2025-278B",
        "meta_epoch": "2025-12-18T06:00:02.999808",
        "meta_mean_motion": 15.72024402,
        "meta_eccentricity": 0.00016109,
        "meta_inclination": 42.9994,
        "meta_ra_of_asc_node": 218.4744,
        "meta_arg_of_pericenter": 277.595,
        "meta_mean_anomaly": 165.0667,
        "meta_ephemeris_type": 0,
        "meta_classification_type": "U",
        "meta_norad_cat_id": 66792,
        "meta_element_set_no": 999,
        "meta_rev_at_epoch": 384,
        "meta_bstar": -0.016382514,
        "meta_mean_motion_dot": -0.0195613,
        "meta_mean_motion_ddot": 0,
        "tle_line1": "1 66792U 25278B   25352.25003472 -.01956130  00000+0 -16383-1 0  9992",
        "tle_line2": "2 66792  42.9994 218.4744 0001610 277.5950 165.0667 15.72024402  3845"
      },
      "geometry": {
        "type": "Point",
        "coordinates": [
          78.75424768870059,
          -32.30908200033367
        ]
      }
    },
    {
      "type": "Feature",
      "properties": {
        "norad_id": 66793,
        "name": "STARLINK-36051",
        "group": "last-30-days",
        "lat": -34.16324811531126,
        "lon": 82.7512659341919,
        "alt_km": 359.8968308700951,
        "timestamp": "2025-12-18T15:47:09.960012+00:00",
        "meta_object_name": "STARLINK-36051",
        "meta_object_id": "2025-278C",
        "meta_epoch": "2025-12-18T06:00:02.999808",
        "meta_mean_motion": 15.72019657,
        "meta_eccentricity": 0.00017423,
        "meta_inclination": 42.9991,
        "meta_ra_of_asc_node": 218.4647,
        "meta_arg_of_pericenter": 274.0622,
        "meta_mean_anomaly": 172.4371,
        "meta_ephemeris_type": 0,
        "meta_classification_type": "U",
        "meta_norad_cat_id": 66793,
        "meta_element_set_no": 999,
        "meta_rev_at_epoch": 374,
        "meta_bstar": -0.016353821,
        "meta_mean_motion_dot": -0.01952856,
        "meta_mean_motion_ddot": 0,
        "tle_line1": "1 66793U 25278C   25352.25003472 -.01952856  00000+0 -16354-1 0  9992",
        "tle_line2": "2 66793  42.9991 218.4647 0001742 274.0622 172.4371 15.72019657  3748"
      },
      "geometry": {
        "type": "Point",
        "coordinates": [
          82.7512659341919,
          -34.16324811531126
        ]
      }
    }
  ]
}